NORAD_CAT_ID,OBJECT_NAME,OBJECT_TYPE,EPOCH,MEAN_MOTION,ECCENTRICITY,INCLINATION,RA_OF_ASC_NODE,ARG_OF_PERICENTER,MEAN_ANOMALY,BSTAR,MEAN_MOTION_DOT,MEAN_MOTION_DDOT,TLE_LINE0,TLE_LINE1,TLE_LINE2,SEMIMAJOR_AXIS,PERIOD,APOGEE,PERIGEE,DECAYED
53160.0,STARLINK-4096,PAYLOAD,2022-10-13 14:00:01,15.0883108,0.0001746,53.2165,344.6378,55.2689,256.1048,0.00042266,6.443e-05,0.0,0 STARLINK-4096,1 53160U 22083AE  22286.58334491  .00006443  00000-0  42266-3 0  9997,2 53160  53.2165 344.6378 0001746  55.2689 256.1048 15.08831080  1301,6917.908,95.438,540.981,538.565,0.0
53160.0,STARLINK-4096,PAYLOAD,2022-10-13 22:00:00,15.08837335,0.0001688,53.2175,343.1384,59.2321,263.7313,-8.2602e-05,-1.602e-05,0.0,0 STARLINK-4096,1 53160U 22083AE  22286.91667824 -.00001602  00000-0 -82602-4 0  9996,2 53160  53.2175 343.1384 0001688  59.2321 263.7313 15.08837335  1303,6917.889,95.438,540.9209999999998,538.586,0.0
53160.0,STARLINK-4096,PAYLOAD,2022-10-14 14:00:01,15.08835032,0.0001651,53.2168,340.1481,49.1228,297.0244,0.00020893,3.038e-05,0.0,0 STARLINK-4096,1 53160U 22083AE  22287.58334491  .00003038  00000-0  20893-3 0  9997,2 53160  53.2168 340.1481 0001651  49.1228 297.0244 15.08835032 14471,6917.896,95.438,540.903,538.618,0.0
53160.0,STARLINK-4096,PAYLOAD,2022-10-14 20:00:01,15.08838506,0.0001578,53.2175,339.0236,49.6364,215.205,-0.00022982,-3.944e-05,0.0,0 STARLINK-4096,1 53160U 22083AE  22287.83334491 -.00003944  00000-0 -22982-3 0  9994,2 53160  53.2175 339.0236 0001578  49.6364 215.2050 15.08838506  1302,6917.885,95.438,540.842,538.658,0.0
53160.0,STARLINK-4096,PAYLOAD,2022-10-15 14:00:01,15.08798522,0.0001585,53.213,335.6617,53.114,327.7755,0.0036000999999999,0.00057409,0.0,0 STARLINK-4096,1 53160U 22083AE  22288.58334491  .00057409  00000-0  36001-2 0  9996,2 53160  53.2130 335.6617 0001585  53.1140 327.7755 15.08798522 14621,6918.007,95.44,540.969,538.776,0.0
53160.0,STARLINK-4096,PAYLOAD,2022-10-15 22:00:01,15.08812888,0.0001499,53.2129,334.1634,60.5274,331.9988,0.00011352,1.518e-05,0.0,0 STARLINK-4096,1 53160U 22083AE  22288.91668981  .00001518  00000-0  11352-3 0  9990,2 53160  53.2129 334.1634 0001499  60.5274 331.9988 15.08812888 14678,6917.9630000000025,95.439,540.865,538.7909999999998,0.0
53160.0,STARLINK-4096,PAYLOAD,2022-10-16 14:00:01,15.08810773,0.0001716,53.2131,331.1721,54.7085,0.9003,0.0037722,0.00060212,0.0,0 STARLINK-4096,1 53160U 22083AE  22289.58334491  .00060212  00000-0  37722-2 0  9994,2 53160  53.2131 331.1721 0001716  54.7085   0.9003 15.08810773  1300,6917.97,95.439,541.0219999999998,538.648,0.0
53160.0,STARLINK-4096,PAYLOAD,2022-10-16 22:00:00,15.08823872,0.0001583,53.2133,329.6738,61.1818,6.0049,0.0024698,0.00039221,0.0,0 STARLINK-4096,1 53160U 22083AE  22289.91667824  .00039221  00000-0  24698-2 0  9994,2 53160  53.2133 329.6738 0001583  61.1818   6.0049 15.08823872  1301,6917.93,95.439,540.89,538.7,0.0
53160.0,STARLINK-4096,PAYLOAD,2022-10-17 14:00:01,15.08860983,0.0001730999999999,53.2132,326.6824,52.5969,37.8138,0.00043221,6.601e-05,0.0,0 STARLINK-4096,1 53160U 22083AE  22290.58334491  .00006601  00000-0  43221-3 0  9990,2 53160  53.2132 326.6824 0001731  52.5969  37.8138 15.08860983  1304,6917.816,95.436,540.879,538.484,0.0
53160.0,STARLINK-4096,PAYLOAD,2022-10-17 22:00:00,15.08831864,0.0001486,53.2136,325.1838,57.2663,44.7637,0.00028046,4.177e-05,0.0,0 STARLINK-4096,1 53160U 22083AE  22290.91667824  .00004177  00000-0  28046-3 0  9990,2 53160  53.2136 325.1838 0001486  57.2663  44.7637 15.08831864 14971,6917.905,95.438,540.798,538.742,0.0
53160.0,STARLINK-4096,PAYLOAD,2022-10-18 14:00:01,15.08832269,0.000167,53.2129,322.1929,48.4776,76.7281,0.0019011,0.00030091,0.0,0 STARLINK-4096,1 53160U 22083AE  22291.58334491  .00030091  00000-0  19011-2 0  9990,2 53160  53.2129 322.1929 0001670  48.4776  76.7281 15.08832269  1306,6917.904,95.438,540.924,538.614,0.0
53160.0,STARLINK-4096,PAYLOAD,2022-10-18 22:00:00,15.08819373,0.0001458,53.2132,320.6947,53.7406,83.0761,0.0017048999999999,0.00026934,0.0,0 STARLINK-4096,1 53160U 22083AE  22291.91667824  .00026934  00000-0  17049-2 0  9996,2 53160  53.2132 320.6947 0001458  53.7406  83.0761 15.08819373  1301,6917.943,95.439,540.817,538.8,0.0
53160.0,STARLINK-4096,PAYLOAD,2022-10-19 06:00:00,15.08850067,0.0001571,53.2134,319.1991,53.0302,95.3631,-0.0011505,-0.00018557,0.0,0 STARLINK-4096,1 53160U 22083AE  22292.25001157 -.00018557  00000-0 -11505-2 0  9990,2 53160  53.2134 319.1991 0001571  53.0302  95.3631 15.08850067 15176,6917.85,95.437,540.8009999999998,538.628,0.0
53160.0,STARLINK-4096,PAYLOAD,2022-10-19 14:00:01,15.08836433,0.0001666999999999,53.2132,317.7034,46.6564,113.3366,0.0019391999999999,0.00030706,0.0,0 STARLINK-4096,1 53160U 22083AE  22292.58334491  .00030706  00000-0  19392-2 0  9996,2 53160  53.2132 317.7034 0001667  46.6564 113.3366 15.08836433  1307,6917.891,95.438,540.91,538.6030000000002,0.0
53160.0,STARLINK-4096,PAYLOAD,2022-10-19 22:00:00,15.08841826,0.0001529,53.2153,316.204,51.4268,120.1922,-0.0003816,-6.356e-05,0.0,0 STARLINK-4096,1 53160U 22083AE  22292.91667824 -.00006356  00000-0 -38160-3 0  9993,2 53160  53.2153 316.2040 0001529  51.4268 120.1922 15.08841826  1309,6917.875,95.437,540.798,538.682,0.0
53160.0,STARLINK-4096,PAYLOAD,2022-10-20 14:00:01,15.08850097,0.0001674,53.2137,313.2136,45.9609,148.8315,-0.00015104,-2.692e-05,0.0,0 STARLINK-4096,1 53160U 22083AE  22293.58334491 -.00002692  00000-0 -15104-3 0  9990,2 53160  53.2137 313.2136 0001674  45.9609 148.8315 15.08850097  1305,6917.85,95.437,540.873,538.556,0.0
53160.0,STARLINK-4096,PAYLOAD,2022-10-20 22:00:00,15.08806768,0.0001518,53.2138,311.7153,54.3761,152.0256,0.0025896,0.00041129,0.0,0 STARLINK-4096,1 53160U 22083AE  22293.91667824  .00041129  00000-0  25896-2 0  9990,2 53160  53.2138 311.7153 0001518  54.3761 152.0256 15.08806768  1305,6917.982,95.44,540.8969999999998,538.797,0.0
53160.0,STARLINK-4096,PAYLOAD,2022-10-21 06:00:00,15.08844802,0.0001659,53.2142,310.2205,53.1586,164.8192,-0.0009712,-0.00015714,0.0,0 STARLINK-4096,1 53160U 22083AE  22294.25001157 -.00015714  00000-0 -97120-3 0  9992,2 53160  53.2142 310.2205 0001659  53.1586 164.8192 15.08844802 15474,6917.866,95.437,540.878,538.5830000000002,0.0
53160.0,STARLINK-4096,PAYLOAD,2022-10-21 14:00:01,15.08846714,0.000172,53.2134,308.7241,49.4639,180.1167,0.0009035,0.00014123,0.0,0 STARLINK-4096,1 53160U 22083AE  22294.58334491  .00014123  00000-0  90350-3 0  9997,2 53160  53.2134 308.7241 0001720  49.4639 180.1167 15.08846714  1307,6917.86,95.437,540.915,538.535,0.0
53160.0,STARLINK-4096,PAYLOAD,2022-10-21 22:00:00,15.08843331,0.0001501,53.2129,307.2262,56.1276,185.0594,0.00015794,2.227e-05,0.0,0 STARLINK-4096,1 53160U 22083AE  22294.91667824  .00002227  00000-0  15794-3 0  9994,2 53160  53.2129 307.2262 0001501  56.1276 185.0594 15.08843331 15571,6917.87,95.437,540.774,538.697,0.0
53160.0,STARLINK-4096,PAYLOAD,2022-10-22 14:00:01,15.08846269,0.0001634,53.214,304.2347,49.1711,215.2053,6.1218e-05,6.87e-06,0.0,0 STARLINK-4096,1 53160U 22083AE  22295.58334491  .00000687  00000-0  61218-4 0  9990,2 53160  53.2140 304.2347 0001634  49.1711 215.2053 15.08846269  1303,6917.861,95.437,540.857,538.596,0.0
53160.0,STARLINK-4096,PAYLOAD,2022-10-22 22:00:00,15.08844019,0.0001534,53.2139,302.7366,58.377,217.6124,0.00091705,0.00014339,0.0,0 STARLINK-4096,1 53160U 22083AE  22295.91667824  .00014339  00000-0  91705-3 0  9998,2 53160  53.2139 302.7366 0001534  58.3770 217.6124 15.08844019  1307,6917.868,95.437,540.794,538.672,0.0
53160.0,STARLINK-4096,PAYLOAD,2022-10-23 06:00:00,15.08847977,0.0001736,53.2138,301.2415,56.2039,231.3965,-0.0002913,-4.922e-05,0.0,0 STARLINK-4096,1 53160U 22083AE  22296.25001157 -.00004922  00000-0 -29130-3 0  9999,2 53160  53.2138 301.2415 0001736  56.2039 231.3965 15.08847977 15772,6917.856,95.437,540.922,538.52,0.0
53160.0,STARLINK-4096,PAYLOAD,2022-10-23 14:00:01,15.08857134,0.0001739,53.2134,299.745,52.8707,246.324,-0.00043196,-7.159999999999999e-05,0.0,0 STARLINK-4096,1 53160U 22083AE  22296.58334491 -.00007160  00000-0 -43196-3 0  9990,2 53160  53.2134 299.7450 0001739  52.8707 246.3240 15.08857134  1307,6917.828,95.436,540.896,538.49,0.0
53160.0,STARLINK-4096,PAYLOAD,2022-10-23 22:00:00,15.08844894,0.0001621999999999,53.2134,298.2468,60.2817,250.5317,-0.00048089,-7.934e-05,0.0,0 STARLINK-4096,1 53160U 22083AE  22296.91667824 -.00007934  00000-0 -48089-3 0  9991,2 53160  53.2134 298.2468 0001622  60.2817 250.5317 15.08844894  1307,6917.865,95.437,540.8530000000002,538.6080000000002,0.0
53160.0,STARLINK-4096,PAYLOAD,2022-10-24 14:00:01,15.08800595,0.0001733999999999,53.2132,295.2551,51.8348,282.1405,-0.00094885,-0.00015341,0.0,0 STARLINK-4096,1 53160U 22083AE  22297.58334491 -.00015341  00000-0 -94885-3 0  9992,2 53160  53.2132 295.2551 0001734  51.8348 282.1405 15.08800595  1303,6918.001,95.44,541.065,538.6659999999998,0.0
53160.0,STARLINK-4096,PAYLOAD,2022-10-24 22:00:00,15.08769513,0.0001610999999999,53.2133,293.7571,58.555,286.968,0.0061584,0.0009891,0.0,0 STARLINK-4096,1 53160U 22083AE  22297.91667824  .00098910  00000-0  61584-2 0  9998,2 53160  53.2133 293.7571 0001611  58.5550 286.9680 15.08769513  1303,6918.096,95.442,541.075,538.846,0.0
53160.0,STARLINK-4096,PAYLOAD,2022-10-25 06:00:00,15.08837273,0.0001748,53.2135,292.2622,52.5923,304.4813,-0.00052257,-8.595e-05,0.0,0 STARLINK-4096,1 53160U 22083AE  22298.25001157 -.00008595  00000-0 -52257-3 0  9997,2 53160  53.2135 292.2622 0001748  52.5923 304.4813 15.08837273 16089,6917.889,95.438,540.9630000000002,538.544,0.0
53160.0,STARLINK-4096,PAYLOAD,2022-10-25 14:00:01,15.08851323,0.0001745,53.2135,290.7653,50.2193,318.4345,-0.0012814,-0.0002063,0.0,0 STARLINK-4096,1 53160U 22083AE  22298.58334491 -.00020630  00000-0 -12814-2 0  9991,2 53160  53.2135 290.7653 0001745  50.2193 318.4345 15.08851323  1303,6917.846,95.437,540.918,538.504,0.0
